[{"OBJECT_NAME":"HULIANWANG DIGUI-149","OBJECT_ID":"2026-013D","EPOCH":"2026-03-09T17:56:12.794784","MEAN_MOTION":13.45498994,"ECCENTRICITY":0.00013534,"INCLINATION":50.0261,"RA_OF_ASC_NODE":352.9519,"ARG_OF_PERICENTER":310.6095,"MEAN_ANOMALY":49.4667,"EPHEMERIS_TYPE":0,"CLASSIFICATION_TYPE":"U","NORAD_CAT_ID":67525,"ELEMENT_SET_NO":999,"REV_AT_EPOCH":681,"BSTAR":0.00018460515,"MEAN_MOTION_DOT":-2.0e-7,"MEAN_MOTION_DDOT":0},{"OBJECT_NAME":"COSMOS 1375 DEB","OBJECT_ID":"1982-055AM","EPOCH":"2026-03-09T15:07:04.723392","MEAN_MOTION":13.59869941,"ECCENTRICITY":0.0078493,"INCLINATION":65.834,"RA_OF_ASC_NODE":140.0549,"ARG_OF_PERICENTER":233.3241,"MEAN_ANOMALY":250.5105,"EPHEMERIS_TYPE":0,"CLASSIFICATION_TYPE":"U","NORAD_CAT_ID":17795,"ELEMENT_SET_NO":999,"REV_AT_EPOCH":468,"BSTAR":7.1824e-5,"MEAN_MOTION_DOT":-2.3e-7,"MEAN_MOTION_DDOT":0}]
